ONEWEB-0043             
1 45149U 20008U   23364.63554542 -.00000319  00000+0 -94894-3 0  9996
2 45149  87.8903 214.9424 0000958  78.9699 281.1536 13.10374286191154
ONEWEB-0044             
1 45150U 20008V   23364.66481582  .00000654  00000+0  18378-2 0  9996
2 45150  87.8895 214.9339 0001064  79.1490 280.9757 13.10370500190675
ONEWEB-0045             
1 45151U 20008W   23365.61547461  .00000572  00000+0  15773-2 0  9997
2 45151  87.8951 199.6209 0001530  90.8679 269.2624 13.11416620193414
ONEWEB-0047             
1 45152U 20008X   23364.65670503  .00000621  00000+0  17432-2 0  9994
2 45152  87.8900 214.9369 0001347  84.0175 276.1106 13.10375247190393
ONEWEB-0048             
1 45153U 20008Y   23364.65180688  .00000628  00000+0  17613-2 0  9993
2 45153  87.8904 214.9497 0001346  85.2118 274.9163 13.10376163190004
ONEWEB-0049             
1 45154U 20008Z   23364.65344378  .00000644  00000+0  18098-2 0  9998
2 45154  87.8907 214.9225 0001307  63.0655 297.0606 13.10375671190229
ONEWEB-0051             
1 45155U 20008AA  23365.46127298  .00000533  00000+0  14671-2 0  9999
2 45155  87.8957 199.6918 0001692  89.5217 270.6105 13.11418151194077
ONEWEB-0052             
1 45156U 20008AB  23364.65018852  .00000591  00000+0  16574-2 0  9993
2 45156  87.8900 214.9071 0001187  53.2595 306.8641 13.10381072190133
